{"fetched_at":"2026-07-21T17:53:39.748Z","source":"https://celestrak.org/NORAD/elements/gp.php?NAME=NUSAT&FORMAT=JSON","constellation":"satellogic","records":[{"OBJECT_NAME":"NUSAT-26 (M SOMERVILLE)","OBJECT_ID":"2022-033AD","EPOCH":"2026-07-21T07:00:55.651392","CLASSIFICATION_TYPE":"U","MEAN_MOTION":15.43394534,"ECCENTRICITY":0.00073267,"INCLINATION":97.2329,"RA_OF_ASC_NODE":281.1342,"ARG_OF_PERICENTER":121.1187,"MEAN_ANOMALY":239.0781,"EPHEMERIS_TYPE":0,"NORAD_CAT_ID":52184,"ELEMENT_SET_NO":999,"REV_AT_EPOCH":10996,"BSTAR":0.00032982999,"MEAN_MOTION_DOT":0.00014666,"MEAN_MOTION_DDOT":0},{"OBJECT_NAME":"NUSAT-33 (ALBANIA-2)","OBJECT_ID":"2023-001AQ","EPOCH":"2026-07-21T06:16:30.150912","CLASSIFICATION_TYPE":"U","MEAN_MOTION":15.28329599,"ECCENTRICITY":0.00045717,"INCLINATION":97.305,"RA_OF_ASC_NODE":262.5155,"ARG_OF_PERICENTER":285.746,"MEAN_ANOMALY":74.3276,"EPHEMERIS_TYPE":0,"NORAD_CAT_ID":55047,"ELEMENT_SET_NO":999,"REV_AT_EPOCH":19751,"BSTAR":0.00025626889,"MEAN_MOTION_DOT":0.00006999,"MEAN_MOTION_DDOT":0},{"OBJECT_NAME":"NUSAT-35 (WILLIAMINA)","OBJECT_ID":"2023-001AR","EPOCH":"2026-07-21T05:54:05.289984","CLASSIFICATION_TYPE":"U","MEAN_MOTION":15.35920689,"ECCENTRICITY":0.00097561,"INCLINATION":97.183,"RA_OF_ASC_NODE":254.149,"ARG_OF_PERICENTER":347.834,"MEAN_ANOMALY":12.2667,"EPHEMERIS_TYPE":0,"NORAD_CAT_ID":55048,"ELEMENT_SET_NO":999,"REV_AT_EPOCH":19763,"BSTAR":0.00028399574,"MEAN_MOTION_DOT":0.00009868,"MEAN_MOTION_DDOT":0},{"OBJECT_NAME":"NUSAT-39 (TIKVAH ALPER)","OBJECT_ID":"2023-054Z","EPOCH":"2026-07-21T06:02:50.542368","CLASSIFICATION_TYPE":"U","MEAN_MOTION":15.48225963,"ECCENTRICITY":0.00014696,"INCLINATION":97.3076,"RA_OF_ASC_NODE":112.3543,"ARG_OF_PERICENTER":271.9821,"MEAN_ANOMALY":88.1261,"EPHEMERIS_TYPE":0,"NORAD_CAT_ID":56201,"ELEMENT_SET_NO":999,"REV_AT_EPOCH":18372,"BSTAR":0.00041728447,"MEAN_MOTION_DOT":0.00021917,"MEAN_MOTION_DDOT":0},{"OBJECT_NAME":"NUSAT-38 (MARIA AGNESI)","OBJECT_ID":"2023-054AA","EPOCH":"2026-07-21T05:37:23.627136","CLASSIFICATION_TYPE":"U","MEAN_MOTION":15.51447982,"ECCENTRICITY":0.00080133,"INCLINATION":97.3018,"RA_OF_ASC_NODE":113.096,"ARG_OF_PERICENTER":299.3887,"MEAN_ANOMALY":60.6565,"EPHEMERIS_TYPE":0,"NORAD_CAT_ID":56202,"ELEMENT_SET_NO":999,"REV_AT_EPOCH":18378,"BSTAR":0.00045519199,"MEAN_MOTION_DOT":0.00026839,"MEAN_MOTION_DDOT":0},{"OBJECT_NAME":"NUSAT-37 (JOAN CLARKE)","OBJECT_ID":"2023-054AB","EPOCH":"2026-07-21T06:13:50.913984","CLASSIFICATION_TYPE":"U","MEAN_MOTION":15.60004023,"ECCENTRICITY":0.00084645,"INCLINATION":97.2585,"RA_OF_ASC_NODE":110.0433,"ARG_OF_PERICENTER":127.7687,"MEAN_ANOMALY":232.4339,"EPHEMERIS_TYPE":0,"NORAD_CAT_ID":56203,"ELEMENT_SET_NO":999,"REV_AT_EPOCH":18395,"BSTAR":0.00049036586,"MEAN_MOTION_DOT":0.00039696,"MEAN_MOTION_DDOT":0},{"OBJECT_NAME":"NUSAT-40 (C SHOEMAKER)","OBJECT_ID":"2023-084M","EPOCH":"2026-07-21T07:00:26.575200","CLASSIFICATION_TYPE":"U","MEAN_MOTION":15.83748258,"ECCENTRICITY":0.00035471,"INCLINATION":97.4872,"RA_OF_ASC_NODE":351.7095,"ARG_OF_PERICENTER":178.935,"MEAN_ANOMALY":181.1927,"EPHEMERIS_TYPE":0,"NORAD_CAT_ID":56943,"ELEMENT_SET_NO":999,"REV_AT_EPOCH":17419,"BSTAR":0.00060680463,"MEAN_MOTION_DOT":0.00135114,"MEAN_MOTION_DDOT":0},{"OBJECT_NAME":"NUSAT-41 (C PAYNE-G)","OBJECT_ID":"2023-084N","EPOCH":"2026-07-21T06:21:00.760032","CLASSIFICATION_TYPE":"U","MEAN_MOTION":15.29998196,"ECCENTRICITY":0.00075092,"INCLINATION":97.5556,"RA_OF_ASC_NODE":339.5345,"ARG_OF_PERICENTER":186.8909,"MEAN_ANOMALY":173.2229,"EPHEMERIS_TYPE":0,"NORAD_CAT_ID":56944,"ELEMENT_SET_NO":999,"REV_AT_EPOCH":17299,"BSTAR":0.00030567506,"MEAN_MOTION_DOT":0.00008806,"MEAN_MOTION_DDOT":0},{"OBJECT_NAME":"NUSAT-42 (M WONENBURGER)","OBJECT_ID":"2023-084AL","EPOCH":"2026-07-21T06:34:44.457888","CLASSIFICATION_TYPE":"U","MEAN_MOTION":15.46679145,"ECCENTRICITY":0.00069075,"INCLINATION":97.5756,"RA_OF_ASC_NODE":347.866,"ARG_OF_PERICENTER":127.8251,"MEAN_ANOMALY":232.3625,"EPHEMERIS_TYPE":0,"NORAD_CAT_ID":56966,"ELEMENT_SET_NO":999,"REV_AT_EPOCH":17334,"BSTAR":0.00035988592,"MEAN_MOTION_DOT":0.00017906,"MEAN_MOTION_DDOT":0},{"OBJECT_NAME":"NUSAT-44 (MARIA MITCHELL)","OBJECT_ID":"2024-043AA","EPOCH":"2026-07-21T06:52:27.649632","CLASSIFICATION_TYPE":"U","MEAN_MOTION":15.29925891,"ECCENTRICITY":0.00066891,"INCLINATION":97.5489,"RA_OF_ASC_NODE":343.0731,"ARG_OF_PERICENTER":114.3078,"MEAN_ANOMALY":245.8862,"EPHEMERIS_TYPE":0,"NORAD_CAT_ID":59122,"ELEMENT_SET_NO":999,"REV_AT_EPOCH":13248,"BSTAR":0.00028722824,"MEAN_MOTION_DOT":0.0000825,"MEAN_MOTION_DDOT":0},{"OBJECT_NAME":"NUSAT-50 (NANCY ROMAN)","OBJECT_ID":"2024-149AB","EPOCH":"2026-07-21T04:10:47.286624","CLASSIFICATION_TYPE":"U","MEAN_MOTION":15.3038322,"ECCENTRICITY":0.00048512,"INCLINATION":97.3774,"RA_OF_ASC_NODE":283.2041,"ARG_OF_PERICENTER":87.9607,"MEAN_ANOMALY":272.2189,"EPHEMERIS_TYPE":0,"NORAD_CAT_ID":60493,"ELEMENT_SET_NO":999,"REV_AT_EPOCH":10732,"BSTAR":0.0002347994,"MEAN_MOTION_DOT":0.00006825,"MEAN_MOTION_DDOT":0},{"OBJECT_NAME":"NUSAT-48 (HENRIETTA LEAVITT)","OBJECT_ID":"2024-149AG","EPOCH":"2026-07-20T18:30:16.854624","CLASSIFICATION_TYPE":"U","MEAN_MOTION":15.30330391,"ECCENTRICITY":0.00052174,"INCLINATION":97.3906,"RA_OF_ASC_NODE":283.1047,"ARG_OF_PERICENTER":142.6363,"MEAN_ANOMALY":217.5242,"EPHEMERIS_TYPE":0,"NORAD_CAT_ID":60498,"ELEMENT_SET_NO":999,"REV_AT_EPOCH":10727,"BSTAR":0.00018711035,"MEAN_MOTION_DOT":0.00005414,"MEAN_MOTION_DDOT":0},{"OBJECT_NAME":"NUSAT-49 (KLARA DAN VON NEUMANN)","OBJECT_ID":"2024-149AJ","EPOCH":"2026-07-21T03:24:06.910560","CLASSIFICATION_TYPE":"U","MEAN_MOTION":15.29837634,"ECCENTRICITY":0.00030032,"INCLINATION":97.3766,"RA_OF_ASC_NODE":283.1988,"ARG_OF_PERICENTER":149.0426,"MEAN_ANOMALY":211.0992,"EPHEMERIS_TYPE":0,"NORAD_CAT_ID":60500,"ELEMENT_SET_NO":999,"REV_AT_EPOCH":10732,"BSTAR":0.000077775756,"MEAN_MOTION_DOT":0.00002172,"MEAN_MOTION_DDOT":0},{"OBJECT_NAME":"NUSAT-45 (UZMASAT-1)","OBJECT_ID":"2025-009AH","EPOCH":"2026-07-21T04:41:44.180736","CLASSIFICATION_TYPE":"U","MEAN_MOTION":15.29873248,"ECCENTRICITY":0.00022788,"INCLINATION":97.3581,"RA_OF_ASC_NODE":283.0864,"ARG_OF_PERICENTER":161.6428,"MEAN_ANOMALY":198.4895,"EPHEMERIS_TYPE":0,"NORAD_CAT_ID":62640,"ELEMENT_SET_NO":999,"REV_AT_EPOCH":8412,"BSTAR":0.00022449052,"MEAN_MOTION_DOT":0.00006418,"MEAN_MOTION_DDOT":0},{"OBJECT_NAME":"NUSAT-52","OBJECT_ID":"2025-276AC","EPOCH":"2026-07-21T02:50:47.909184","CLASSIFICATION_TYPE":"U","MEAN_MOTION":15.20072407,"ECCENTRICITY":0.0001825,"INCLINATION":97.419,"RA_OF_ASC_NODE":275.1075,"ARG_OF_PERICENTER":240.4752,"MEAN_ANOMALY":119.6302,"EPHEMERIS_TYPE":0,"NORAD_CAT_ID":66692,"ELEMENT_SET_NO":999,"REV_AT_EPOCH":3557,"BSTAR":0.00016939687,"MEAN_MOTION_DOT":0.00003588,"MEAN_MOTION_DDOT":0},{"OBJECT_NAME":"NUSAT-51 (YVONNE BRILL)","OBJECT_ID":"2025-276CC","EPOCH":"2026-07-21T02:49:30.503424","CLASSIFICATION_TYPE":"U","MEAN_MOTION":15.20608064,"ECCENTRICITY":0.00022274,"INCLINATION":97.4194,"RA_OF_ASC_NODE":275.2546,"ARG_OF_PERICENTER":206.4282,"MEAN_ANOMALY":153.684,"EPHEMERIS_TYPE":0,"NORAD_CAT_ID":66740,"ELEMENT_SET_NO":999,"REV_AT_EPOCH":3558,"BSTAR":0.0001994281,"MEAN_MOTION_DOT":0.00004303,"MEAN_MOTION_DDOT":0}]}
