NUSAT-26 (M SOMERVILLE) 
1 52184U 22033AD  26202.29231078  .00014666  00000+0  32983-3 0  9994
2 52184  97.2329 281.1342 0007326 121.1187 239.0781 15.43394534109960
NUSAT-33 (ALBANIA-2)    
1 55047U 23001AQ  26202.26146008  .00006999  00000+0  25627-3 0  9993
2 55047  97.3050 262.5155 0004571 285.7460  74.3276 15.28329599197517
NUSAT-35 (WILLIAMINA)   
1 55048U 23001AR  26202.24589456  .00009868  00000+0  28400-3 0  9990
2 55048  97.1830 254.1490 0009756 347.8340  12.2667 15.35920689197631
NUSAT-39 (TIKVAH ALPER) 
1 56201U 23054Z   26202.25197387  .00021917  00000+0  41728-3 0  9996
2 56201  97.3076 112.3543 0001469 271.9821  88.1261 15.48225963183729
NUSAT-38 (MARIA AGNESI) 
1 56202U 23054AA  26202.23430124  .00026839  00000+0  45519-3 0  9994
2 56202  97.3018 113.0960 0008013 299.3887  60.6565 15.51447982183784
NUSAT-37 (JOAN CLARKE)  
1 56203U 23054AB  26202.25961706  .00039696  00000+0  49037-3 0  9996
2 56203  97.2585 110.0433 0008464 127.7687 232.4339 15.60004023183959
NUSAT-40 (C SHOEMAKER)  
1 56943U 23084M   26202.29197425  .00135114  00000+0  60680-3 0  9992
2 56943  97.4872 351.7095 0003547 178.9350 181.1927 15.83748258174190
NUSAT-41 (C PAYNE-G)    
1 56944U 23084N   26202.26459213  .00008806  00000+0  30568-3 0  9995
2 56944  97.5556 339.5345 0007509 186.8909 173.2229 15.29998196172994
NUSAT-42 (M WONENBURGER)
1 56966U 23084AL  26202.27412567  .00017906  00000+0  35989-3 0  9994
2 56966  97.5756 347.8660 0006907 127.8251 232.3625 15.46679145173344
NUSAT-44 (MARIA MITCHE*)
1 59122U 24043AA  26202.28643113  .00008250  00000+0  28723-3 0  9991
2 59122  97.5489 343.0731 0006689 114.3078 245.8862 15.29925891132481
NUSAT-50 (NANCY ROMAN)  
1 60493U 24149AB  26202.17415841  .00006825  00000+0  23480-3 0  9995
2 60493  97.3774 283.2041 0004851  87.9607 272.2189 15.30383220107327
NUSAT-48 (HENRIETTA LE*)
1 60498U 24149AG  26201.77102841  .00005414  00000+0  18711-3 0  9992
2 60498  97.3906 283.1047 0005217 142.6363 217.5242 15.30330391107276
NUSAT-49 (KLARA DAN VO*)
1 60500U 24149AJ  26202.14174665  .00002172  00000+0  77776-4 0  9996
2 60500  97.3766 283.1988 0003003 149.0426 211.0992 15.29837634107327
NUSAT-45 (UZMASAT-1)    
1 62640U 25009AH  26202.19565024  .00006418  00000+0  22449-3 0  9990
2 62640  97.3581 283.0864 0002278 161.6428 198.4895 15.29873248 84129
NUSAT-52                
1 66692U 25276AC  26202.11861006  .00003588  00000+0  16940-3 0  9992
2 66692  97.4190 275.1075 0001825 240.4752 119.6302 15.20072407 35578
NUSAT-51 (YVONNE BRILL) 
1 66740U 25276CC  26202.11771416  .00004303  00000+0  19943-3 0  9993
2 66740  97.4194 275.2546 0002227 206.4282 153.6840 15.20608064 35587
